NORAD_CAT_ID,OBJECT_NAME,OBJECT_TYPE,EPOCH,MEAN_MOTION,ECCENTRICITY,INCLINATION,RA_OF_ASC_NODE,ARG_OF_PERICENTER,MEAN_ANOMALY,BSTAR,MEAN_MOTION_DOT,MEAN_MOTION_DDOT,TLE_LINE0,TLE_LINE1,TLE_LINE2,SEMIMAJOR_AXIS,PERIOD,APOGEE,PERIGEE,DECAYED
53570.0,STARLINK-4550,PAYLOAD,2023-09-16 04:03:37,15.08850648,0.0001318,53.2172,159.0655,89.5445,270.5698,7.733e-05,9.43e-06,0.0,0 STARLINK-4550,1 53570U 22101AV  23259.16918819  .00000943  00000-0  77330-4 0  9990,2 53570  53.2172 159.0655 0001318  89.5445 270.5698 15.08850648 60436,6917.848,95.437,540.625,538.801,0.0
53570.0,STARLINK-4550,PAYLOAD,2023-09-17 00:43:39,15.08839351,0.0001494,53.2177,155.2003,85.2189,274.8973,0.00018144,2.601e-05,0.0,0 STARLINK-4550,1 53570U 22101AV  23260.03031553  .00002601  00000-0  18144-3 0  9999,2 53570  53.2177 155.2003 0001494  85.2189 274.8973 15.08839351 59876,6917.882,95.438,540.781,538.714,0.0
53570.0,STARLINK-4550,PAYLOAD,2023-09-17 02:19:02,15.08841302,0.0001462,53.2175,154.903,89.71,270.406,0.00021236,3.093e-05,0.0,0 STARLINK-4550,1 53570U 22101AV  23260.09655492  .00003093  00000-0  21236-3 0  9991,2 53570  53.2175 154.9030 0001462  89.7100 270.4060 15.08841302 60574,6917.876,95.437,540.753,538.73,0.0
53570.0,STARLINK-4550,PAYLOAD,2023-09-18 02:09:48,15.08852664,0.0001443,53.2173,150.4412,92.8504,267.2653,7.6817e-05,9.35e-06,0.0,0 STARLINK-4550,1 53570U 22101AV  23261.09014978  .00000935  00000-0  76817-4 0  9998,2 53570  53.2173 150.4412 0001443  92.8504 267.2653 15.08852664 60035,6917.842,95.437,540.705,538.708,0.0
53570.0,STARLINK-4550,PAYLOAD,2023-09-18 21:14:27,15.08842084,0.0001234,53.2174,146.874,92.6769,267.4365,1.8235e-05,2e-08,0.0,0 STARLINK-4550,1 53570U 22101AV  23261.88503817  .00000002  00000-0  18235-4 0  9995,2 53570  53.2174 146.8740 0001234  92.6769 267.4365 15.08842084 60844,6917.874,95.437,540.593,538.885,0.0
53570.0,STARLINK-4550,PAYLOAD,2023-09-19 02:00:35,15.08852085,0.0001333,53.2168,145.9806,98.8376,261.2768,7.7907e-05,9.53e-06,0.0,0 STARLINK-4550,1 53570U 22101AV  23262.08374945  .00000953  00000-0  77907-4 0  9992,2 53570  53.2168 145.9806 0001333  98.8376 261.2768 15.08852085 60180,6917.843,95.437,540.631,538.786,0.0
53570.0,STARLINK-4550,PAYLOAD,2023-09-20 01:51:22,15.0885981,0.0001381,53.216,141.5197,92.8828,267.2322,0.00023249,3.416e-05,0.0,0 STARLINK-4550,1 53570U 22101AV  23263.07734303  .00003416  00000-0  23249-3 0  9996,2 53570  53.2160 141.5197 0001381  92.8828 267.2322 15.08859810 61025,6917.82,95.436,540.64,538.729,0.0
53570.0,STARLINK-4550,PAYLOAD,2023-09-20 20:56:02,15.08823447,0.0001524,53.2159,137.9512,105.6756,254.4404,-0.00026601,-4.517e-05,0.0,0 STARLINK-4550,1 53570U 22101AV  23263.87224553 -.00004517  00000-0 -26601-3 0  9995,2 53570  53.2159 137.9512 0001524 105.6756 254.4404 15.08823447 61144,6917.931,95.439,540.85,538.742,0.0
53570.0,STARLINK-4550,PAYLOAD,2023-09-21 01:42:11,15.08820592,0.0001305,53.2158,137.0601,84.4943,275.6198,-0.00026917,-4.567e-05,0.0,0 STARLINK-4550,1 53570U 22101AV  23264.07096985 -.00004567  00000-0 -26917-3 0  9999,2 53570  53.2158 137.0601 0001305  84.4943 275.6198 15.08820592 60481,6917.94,95.439,540.708,538.902,0.0
53570.0,STARLINK-4550,PAYLOAD,2023-09-21 22:22:12,15.08837888,0.000119,53.2157,133.1961,87.283,272.8298,3.5929e-05,2.84e-06,0.0,0 STARLINK-4550,1 53570U 22101AV  23264.93208812  .00000284  00000-0  35929-4 0  9992,2 53570  53.2157 133.1961 0001190  87.2830 272.8298 15.08837888 61302,6917.887,95.438,540.575,538.929,0.0
53570.0,STARLINK-4550,PAYLOAD,2023-09-22 01:32:58,15.08842093,0.0001215,53.2156,132.6004,90.9757,269.1374,0.00012322,1.674e-05,0.0,0 STARLINK-4550,1 53570U 22101AV  23265.06456696  .00001674  00000-0  12322-3 0  9997,2 53570  53.2156 132.6004 0001215  90.9757 269.1374 15.08842093 60633,6917.874,95.437,540.58,538.898,0.0
53570.0,STARLINK-4550,PAYLOAD,2023-09-22 22:12:59,15.08861265,0.0001207,53.2153,128.7347,74.6154,285.4971,0.00071848,0.00011172,0.0,0 STARLINK-4550,1 53570U 22101AV  23265.92568447  .00011172  00000-0  71848-3 0  9992,2 53570  53.2153 128.7347 0001207  74.6154 285.4971 15.08861265 61454,6917.815,95.436,540.515,538.845,0.0
53570.0,STARLINK-4550,PAYLOAD,2023-09-23 01:23:45,15.08873057,0.0001215,53.2153,128.1396,72.6793,287.4332,0.00089373,0.00013977,0.0,0 STARLINK-4550,1 53570U 22101AV  23266.05816048  .00013977  00000-0  89373-3 0  9997,2 53570  53.2153 128.1396 0001215  72.6793 287.4332 15.08873057 60788,6917.779,95.435,540.485,538.804,0.0
53570.0,STARLINK-4550,PAYLOAD,2023-09-23 14:06:50,15.08839988,8.62e-05,53.2155,125.7608,66.9064,293.2019,-0.00025628,-4.364e-05,0.0,0 STARLINK-4550,1 53570U 22101AV  23266.58808385 -.00004364  00000-0 -25628-3 0  9995,2 53570  53.2155 125.7608 0000862  66.9064 293.2019 15.08839988 61551,6917.88,95.438,540.342,539.149,0.0
53570.0,STARLINK-4550,PAYLOAD,2023-09-23 18:52:59,15.08845684,0.000126,53.2151,124.8686,64.2942,295.818,0.00017864,2.557e-05,0.0,0 STARLINK-4550,1 53570U 22101AV  23266.78680445  .00002557  00000-0  17864-3 0  9995,2 53570  53.2151 124.8686 0001260  64.2942 295.8180 15.08845684 60895,6917.863,95.437,540.6,538.856,0.0
53570.0,STARLINK-4550,PAYLOAD,2023-09-24 01:14:32,15.08847391,0.0001227,53.2151,123.679,95.5765,264.5367,0.00041402,6.309e-05,0.0,0 STARLINK-4550,1 53570U 22101AV  23267.05176292  .00006309  00000-0  41402-3 0  9990,2 53570  53.2151 123.6790 0001227  95.5765 264.5367 15.08847391 61620,6917.858,95.437,540.572,538.874,0.0
53570.0,STARLINK-4550,PAYLOAD,2023-09-24 18:43:47,15.08845308,0.0001258,53.2147,120.4067,101.2265,258.8869,0.00068169,0.00010579,0.0,0 STARLINK-4550,1 53570U 22101AV  23267.78040622  .00010579  00000-0  68169-3 0  9990,2 53570  53.2147 120.4067 0001258 101.2265 258.8869 15.08845308 61046,6917.864,95.437,540.599,538.859,0.0
53570.0,STARLINK-4550,PAYLOAD,2023-09-24 21:54:33,15.08848025,0.0001187,53.2149,119.8133,96.6546,263.4582,0.00064073,9.926e-05,0.0,0 STARLINK-4550,1 53570U 22101AV  23267.91288552  .00009926  00000-0  64073-3 0  9995,2 53570  53.2149 119.8133 0001187  96.6546 263.4582 15.08848025 61755,6917.856,95.437,540.542,538.9,0.0
53570.0,STARLINK-4550,PAYLOAD,2023-09-25 07:26:51,15.08855315,0.000129,53.2151,118.0294,94.2363,265.8777,0.0010252,0.00016073,0.0,0 STARLINK-4550,1 53570U 22101AV  23268.31032398  .00016073  00000-0  10252-2 0  9995,2 53570  53.2151 118.0294 0001290  94.2363 265.8777 15.08855315 61812,6917.834,95.437,540.591,538.806,0.0
53570.0,STARLINK-4550,PAYLOAD,2023-09-25 18:34:33,15.08850126,0.0001297,53.215,115.9466,103.6015,256.5121,0.00070272,0.00010917,0.0,0 STARLINK-4550,1 53570U 22101AV  23268.77400337  .00010917  00000-0  70272-3 0  9997,2 53570  53.2150 115.9466 0001297 103.6015 256.5121 15.08850126 61190,6917.849,95.437,540.612,538.817,0.0
53570.0,STARLINK-4550,PAYLOAD,2023-09-25 20:09:56,15.08854369,0.0001327,53.2152,115.6495,100.226,259.8882,0.00060386,9.339e-05,0.0,0 STARLINK-4550,1 53570U 22101AV  23268.84024198  .00009339  00000-0  60386-3 0  9993,2 53570  53.2152 115.6495 0001327 100.2260 259.8882 15.08854369 61890,6917.836,95.437,540.619,538.783,0.0
53570.0,STARLINK-4550,PAYLOAD,2023-09-26 05:42:15,15.08850061,0.0001066,53.2156,113.8657,104.5843,255.5268,0.00024872,3.674e-05,0.0,0 STARLINK-4550,1 53570U 22101AV  23269.23767920  .00003674  00000-0  24872-3 0  9990,2 53570  53.2156 113.8657 0001066 104.5843 255.5268 15.08850061 61265,6917.85,95.437,540.452,538.977,0.0
53570.0,STARLINK-4550,PAYLOAD,2023-09-26 13:39:11,15.08837292,0.0001511,53.2153,112.3779,89.2952,270.8213,-7.1709e-05,-1.429e-05,0.0,0 STARLINK-4550,1 53570U 22101AV  23269.56888470 -.00001429  00000-0 -71709-4 0  9990,2 53570  53.2153 112.3779 0001511  89.2952 270.8213 15.08837292 62000,6917.889,95.438,540.799,538.708,0.0
53570.0,STARLINK-4550,PAYLOAD,2023-09-26 18:25:21,15.0883625,0.0002099,53.2151,111.4924,52.4568,307.6614,-3.7167e-05,-8.8e-06,0.0,0 STARLINK-4550,1 53570U 22101AV  23269.76760793 -.00000880  00000-0 -37167-4 0  9999,2 53570  53.2151 111.4924 0002099  52.4568 307.6614 15.08836250 61340,6917.892,95.438,541.209,538.305,0.0
53570.0,STARLINK-4550,PAYLOAD,2023-09-26 20:00:44,15.0883843,0.0002,53.2152,111.1947,56.2075,303.9107,2.7178e-06,-2.45e-06,0.0,0 STARLINK-4550,1 53570U 22101AV  23269.83384844 -.00000245  00000-0  27178-5 0  9992,2 53570  53.2152 111.1947 0002000  56.2075 303.9107 15.08838430 62046,6917.885,95.438,541.134,538.367,0.0
53570.0,STARLINK-4550,PAYLOAD,2023-09-27 07:08:26,15.0883805,0.0002224,53.2152,109.113,54.6642,305.4558,2.0887e-05,4.4e-07,0.0,0 STARLINK-4550,1 53570U 22101AV  23270.29752998  .00000044  00000-0  20887-4 0  9998,2 53570  53.2152 109.1130 0002224  54.6642 305.4558 15.08838050 62110,6917.886,95.438,541.29,538.213,0.0
53570.0,STARLINK-4550,PAYLOAD,2023-09-27 18:16:06,15.08837383,0.0001506,53.216,107.0207,112.1485,247.9667,-0.00026799,-4.55e-05,0.0,0 STARLINK-4550,1 53570U 22101AV  23270.76118973 -.00004550  00000-0 -26799-3 0  9994,2 53570  53.2160 107.0207 0001506 112.1485 247.9667 15.08837383 61497,6917.888,95.438,540.795,538.712,0.0
53570.0,STARLINK-4550,PAYLOAD,2023-09-27 19:51:30,15.08830882,0.0001308,53.2157,106.7224,99.5304,260.5836,-0.00034524,-5.777e-05,0.0,0 STARLINK-4550,1 53570U 22101AV  23270.82743222 -.00005777  00000-0 -34524-3 0  9999,2 53570  53.2157 106.7224 0001308  99.5304 260.5836 15.08830882 61504,6917.908,95.438,540.678,538.868,0.0
53570.0,STARLINK-4550,PAYLOAD,2023-09-28 13:20:45,15.08824477,0.0001365,53.215,103.4607,80.1561,279.9586,-0.00025012,-4.265e-05,0.0,0 STARLINK-4550,1 53570U 22101AV  23271.55608190 -.00004265  00000-0 -25012-3 0  9997,2 53570  53.2150 103.4607 0001365  80.1561 279.9586 15.08824477 62308,6917.928,95.439,540.737,538.849,0.0
53570.0,STARLINK-4550,PAYLOAD,2023-09-28 19:42:18,15.08829489,0.0001304,53.216,102.2668,83.762,276.3521,-0.0001091,-2.023e-05,0.0,0 STARLINK-4550,1 53570U 22101AV  23271.82104397 -.00002023  00000-0 -10910-3 0  9998,2 53570  53.2160 102.2668 0001304  83.7620 276.3521 15.08829489 62343,6917.913,95.438,540.68,538.875,0.0
